ONEWEB-0534             
1 55797U 23029B   26196.18389482  .00000043  00000+0  74464-4 0  9991
2 55797  87.9175 268.8891 0002030 102.2273 257.9088 13.20773007164848
ONEWEB-0556             
1 55798U 23029C   26196.19065121 -.00002554  00000+0 -63149-2 0  9991
2 55798  87.9180 268.8856 0001388 114.8745 245.2533 13.20786252164845
ONEWEB-0562             
1 55799U 23029D   26196.25293262  .00000004  00000+0 -22890-4 0  9995
2 55799  87.9175 268.8551 0001333  83.8397 276.2888 13.20771961164859
ONEWEB-0563             
1 55800U 23029E   26196.17211974 -.00000007  00000+0 -49153-4 0  9994
2 55800  87.9175 268.9012 0002095 104.9686 255.1679 13.20769863164837
ONEWEB-0564             
1 55801U 23029F   26196.77145170  .00000045  00000+0  78118-4 0  9998
2 55801  87.9177 268.7556 0001758  91.0094 269.1240 13.20772407164922
ONEWEB-0638             
1 55802U 23029G   26196.78500456  .00000121  00000+0  29077-3 0  9996
2 55802  87.8960 284.0513 0001454 103.4276 256.7015 13.14504117163159
ONEWEB-0639             
1 55803U 23029H   26196.76646542  .00000067  00000+0  13517-3 0  9993
2 55803  87.9186 299.2848 0002642 119.4090 240.7307 13.19726898162671
ONEWEB-0640             
1 55804U 23029J   26196.79452089 -.00000053  00000+0 -17850-3 0  9999
2 55804  87.8962 284.0406 0001594 117.2760 242.8532 13.14501742163173
ONEWEB-0641             
1 55805U 23029K   26196.83755912 -.00000991  00000+0 -25092-2 0  9993
2 55805  87.9194 299.2621 0002072 103.9895 256.1468 13.19717117162694
ONEWEB-0642             
1 55806U 23029L   26196.83282270  .00000025  00000+0  29681-4 0  9992
2 55806  87.9188 299.2727 0002693 113.4187 246.7229 13.19726412162681
ONEWEB-0643             
1 55807U 23029M   26196.76439741  .00000212  00000+0  53843-3 0  9996
2 55807  87.8957 284.0338 0002677 106.8001 253.3423 13.14502555163145
ONEWEB-0644             
1 55808U 23029N   26196.82808587  .00000026  00000+0  33558-4 0  9997
2 55808  87.9184 299.2746 0002291 106.2711 253.8674 13.19726087162688
ONEWEB-0645             
1 55809U 23029P   26196.77438089  .00000059  00000+0  11541-3 0  9991
2 55809  87.9184 299.2821 0002040 114.3968 245.7378 13.19725946162672
ONEWEB-0646             
1 55810U 23029Q   26196.79174536  .00000044  00000+0  78307-4 0  9997
2 55810  87.9186 299.2791 0002276 105.0055 255.1329 13.19726776162669
ONEWEB-0648             
1 55811U 23029R   26196.73267211 -.00000229  00000+0 -65142-3 0  9994
2 55811  87.8968 284.0164 0002397 122.1002 238.0360 13.14503462163148
ONEWEB-0649             
1 55812U 23029S   26196.81701183 -.00000057  00000+0 -17435-3 0  9996
2 55812  87.9185 299.2721 0002074 108.7143 251.4215 13.19726636162700
ONEWEB-0650             
1 55813U 23029T   26196.73646147 -.00000033  00000+0 -11564-3 0  9997
2 55813  87.9184 299.2905 0002499 111.5921 248.5478 13.19725962162665
ONEWEB-0652             
1 55814U 23029U   26196.71364552  .00000072  00000+0  16043-3 0  9991
2 55814  87.8970 284.0268 0001991  94.9052 265.2305 13.14502844163110
ONEWEB-0653             
1 55815U 23029V   26196.77390441  .00000211  00000+0  53593-3 0  9990
2 55815  87.8969 284.0131 0001957 100.0038 260.1312 13.14501982163151
ONEWEB-0654             
1 55816U 23029W   26196.69302808  .00000233  00000+0  59505-3 0  9995
2 55816  87.8969 284.0253 0001802  91.1785 268.9551 13.14501933163163
ONEWEB-0656             
1 55817U 23029X   26196.23441218  .00000110  00000+0  23830-3 0  9991
2 55817  87.9187 268.8421 0001881  87.0914 273.0435 13.20769963164850
ONEWEB-0657             
1 55818U 23029Y   26196.80756822 -.00000017  00000+0 -75258-4 0  9995
2 55818  87.9184 299.2751 0002200  79.0040 281.1340 13.19726941162680
ONEWEB-0658             
1 55819U 23029Z   26196.80281295 -.00000030  00000+0 -10661-3 0  9994
2 55819  87.9193 299.2541 0002358 107.2101 252.9290 13.19726449162698
ONEWEB-0660             
1 55820U 23029AA  26196.74694251 -.00000058  00000+0 -19007-3 0  9992
2 55820  87.8975 284.0102 0001943 109.2328 250.9012 13.14502341163154
ONEWEB-0661             
1 55821U 23029AB  26196.78183899  .00000224  00000+0  57025-3 0  9993
2 55821  87.8961 284.0433 0001792 107.2964 252.8362 13.14502349163149
ONEWEB-0662             
1 55822U 23029AC  26196.74060745 -.00000175  00000+0 -50767-3 0  9997
2 55822  87.8959 284.0569 0001936 108.7830 251.3509 13.14502783163188
ONEWEB-0663             
1 55823U 23029AD  26196.19026980  .00000032  00000+0  47676-4 0  9996
2 55823  87.9190 268.9216 0002194 110.8769 249.2600 13.20871776164849
ONEWEB-0664             
1 55824U 23029AE  26196.75125476  .00000114  00000+0  24857-3 0  9995
2 55824  87.9174 268.7876 0001595 103.5601 256.5710 13.20772245164912
ONEWEB-0665             
1 55825U 23029AF  26196.77866894  .00000233  00000+0  59358-3 0  9990
2 55825  87.8961 284.0248 0002027 109.9625 250.1723 13.14501963163167
ONEWEB-0666             
1 55826U 23029AG  26196.74450065  .00000034  00000+0  51012-4 0  9996
2 55826  87.9177 268.7790 0002504  84.3849 275.7570 13.20773101164923
