OBJECT_NAME,OBJECT_ID,EPOCH,MEAN_MOTION,ECCENTRICITY,INCLINATION,RA_OF_ASC_NODE,ARG_OF_PERICENTER,MEAN_ANOMALY,EPHEMERIS_TYPE,CLASSIFICATION_TYPE,NORAD_CAT_ID,ELEMENT_SET_NO,REV_AT_EPOCH,BSTAR,MEAN_MOTION_DOT,MEAN_MOTION_DDOT
ONEWEB-0534,2023-029B,2026-07-15T04:24:48.512448,13.20773007,.00020308,87.9175,268.8891,102.2273,257.9088,0,U,55797,999,16484,.74464416E-4,.43E-6,0
ONEWEB-0556,2023-029C,2026-07-15T04:34:32.264544,13.20786252,.0001388,87.9180,268.8856,114.8745,245.2533,0,U,55798,999,16484,-.63148552E-2,-.2554E-4,0
ONEWEB-0562,2023-029D,2026-07-15T06:04:13.378368,13.20771961,.00013336,87.9175,268.8551,83.8397,276.2888,0,U,55799,999,16485,-.2289048E-4,.4E-7,0
ONEWEB-0563,2023-029E,2026-07-15T04:07:51.145536,13.20769863,.00020956,87.9175,268.9012,104.9686,255.1679,0,U,55800,999,16483,-.49152753E-4,-.7E-7,0
ONEWEB-0564,2023-029F,2026-07-15T18:30:53.426880,13.20772407,.0001758,87.9177,268.7556,91.0094,269.1240,0,U,55801,999,16492,.78118E-4,.45E-6,0
ONEWEB-0638,2023-029G,2026-07-15T18:50:24.393984,13.14504117,.0001454,87.8960,284.0513,103.4276,256.7015,0,U,55802,999,16315,.29077E-3,.121E-5,0
ONEWEB-0639,2023-029H,2026-07-15T18:23:42.612288,13.19726898,.0002642,87.9186,299.2848,119.4090,240.7307,0,U,55803,999,16267,.13517E-3,.67E-6,0
ONEWEB-0640,2023-029J,2026-07-15T19:04:06.604896,13.14501742,.0001594,87.8962,284.0406,117.2760,242.8532,0,U,55804,999,16317,-.1785E-3,-.53E-6,0
ONEWEB-0641,2023-029K,2026-07-15T20:06:05.107968,13.19717117,.0002072,87.9194,299.2621,103.9895,256.1468,0,U,55805,999,16269,-.25092E-2,-.991E-5,0
ONEWEB-0642,2023-029L,2026-07-15T19:59:15.881280,13.19726412,.0002693,87.9188,299.2727,113.4187,246.7229,0,U,55806,999,16268,.29681E-4,.25E-6,0
ONEWEB-0643,2023-029M,2026-07-15T18:20:43.936224,13.14502555,.0002677,87.8957,284.0338,106.8001,253.3423,0,U,55807,999,16314,.53843E-3,.212E-5,0
ONEWEB-0644,2023-029N,2026-07-15T19:52:26.619168,13.19726087,.0002291,87.9184,299.2746,106.2711,253.8674,0,U,55808,999,16268,.33558E-4,.26E-6,0
ONEWEB-0645,2023-029P,2026-07-15T18:35:06.508896,13.19725946,.000204,87.9184,299.2821,114.3968,245.7378,0,U,55809,999,16267,.11541E-3,.59E-6,0
ONEWEB-0646,2023-029Q,2026-07-15T19:00:06.799104,13.19726776,.0002276,87.9186,299.2791,105.0055,255.1329,0,U,55810,999,16266,.78307E-4,.44E-6,0
ONEWEB-0648,2023-029R,2026-07-15T17:35:02.870304,13.14503462,.0002397,87.8968,284.0164,122.1002,238.0360,0,U,55811,999,16314,-.65142E-3,-.229E-5,0
ONEWEB-0649,2023-029S,2026-07-15T19:36:29.822112,13.19726636,.0002074,87.9185,299.2721,108.7143,251.4215,0,U,55812,999,16270,-.17435E-3,-.57E-6,0
ONEWEB-0650,2023-029T,2026-07-15T17:40:30.271008,13.19725962,.0002499,87.9184,299.2905,111.5921,248.5478,0,U,55813,999,16266,-.11564E-3,-.33E-6,0
ONEWEB-0652,2023-029U,2026-07-15T17:07:38.972928,13.14502844,.0001991,87.8970,284.0268,94.9052,265.2305,0,U,55814,999,16311,.16043E-3,.72E-6,0
ONEWEB-0653,2023-029V,2026-07-15T18:34:25.341024,13.14501982,.0001957,87.8969,284.0131,100.0038,260.1312,0,U,55815,999,16315,.53593E-3,.211E-5,0
ONEWEB-0654,2023-029W,2026-07-15T16:37:57.626112,13.14501933,.0001802,87.8969,284.0253,91.1785,268.9551,0,U,55816,999,16316,.59505E-3,.233E-5,0
ONEWEB-0656,2023-029X,2026-07-15T05:37:33.212352,13.20769963,.00018815,87.9187,268.8421,87.0914,273.0435,0,U,55817,999,16485,.2383017E-3,.11E-5,0
ONEWEB-0657,2023-029Y,2026-07-15T19:22:53.894208,13.19726941,.00022,87.9184,299.2751,79.0040,281.1340,0,U,55818,999,16268,-.75258E-4,-.17E-6,0
ONEWEB-0658,2023-029Z,2026-07-15T19:16:03.038880,13.19726449,.0002358,87.9193,299.2541,107.2101,252.9290,0,U,55819,999,16269,-.10661E-3,-.3E-6,0
ONEWEB-0660,2023-029AA,2026-07-15T17:55:35.832864,13.14502341,.0001943,87.8975,284.0102,109.2328,250.9012,0,U,55820,999,16315,-.19007E-3,-.58E-6,0
ONEWEB-0661,2023-029AB,2026-07-15T18:45:50.888736,13.14502349,.0001792,87.8961,284.0433,107.2964,252.8362,0,U,55821,999,16314,.57025E-3,.224E-5,0
ONEWEB-0662,2023-029AC,2026-07-15T17:46:28.483680,13.14502783,.0001936,87.8959,284.0569,108.7830,251.3509,0,U,55822,999,16318,-.50767E-3,-.175E-5,0
ONEWEB-0663,2023-029AD,2026-07-15T04:33:59.310720,13.20871776,.00021948,87.9190,268.9216,110.8769,249.2600,0,U,55823,999,16484,.47675518E-4,.32E-6,0
ONEWEB-0664,2023-029AE,2026-07-15T18:01:48.411264,13.20772245,.0001595,87.9174,268.7876,103.5601,256.5710,0,U,55824,999,16491,.24857E-3,.114E-5,0
ONEWEB-0665,2023-029AF,2026-07-15T18:41:16.996416,13.14501963,.0002027,87.8961,284.0248,109.9625,250.1723,0,U,55825,999,16316,.59358E-3,.233E-5,0
ONEWEB-0666,2023-029AG,2026-07-15T17:52:04.856160,13.20773101,.0002504,87.9177,268.7790,84.3849,275.7570,0,U,55826,999,16492,.51012E-4,.34E-6,0
